[{"OBJECT_NAME":"STARLINK-32788","OBJECT_ID":"2025-003R","EPOCH":"2026-03-09T22:59:49.827840","MEAN_MOTION":15.2759098,"ECCENTRICITY":7.027e-5,"INCLINATION":42.9941,"RA_OF_ASC_NODE":287.3671,"ARG_OF_PERICENTER":7.8344,"MEAN_ANOMALY":352.2518,"EPHEMERIS_TYPE":0,"CLASSIFICATION_TYPE":"U","NORAD_CAT_ID":62502,"ELEMENT_SET_NO":999,"REV_AT_EPOCH":6659,"BSTAR":0.00084614204,"MEAN_MOTION_DOT":0.00023103,"MEAN_MOTION_DDOT":0},{"OBJECT_NAME":"PUCP-SAT 1","OBJECT_ID":"2013-066AC","EPOCH":"2026-03-09T22:02:13.763904","MEAN_MOTION":15.29426022,"ECCENTRICITY":0.00136836,"INCLINATION":97.5787,"RA_OF_ASC_NODE":61.0032,"ARG_OF_PERICENTER":300.1183,"MEAN_ANOMALY":59.87,"EPHEMERIS_TYPE":0,"CLASSIFICATION_TYPE":"U","NORAD_CAT_ID":39442,"ELEMENT_SET_NO":999,"REV_AT_EPOCH":66907,"BSTAR":0.00088755185,"MEAN_MOTION_DOT":0.00025373,"MEAN_MOTION_DDOT":0}]
